[
    {
        "Altitude(m)": 607910.9943768367,
        "Argument of Periapsis(deg)": 0.0,
        "Eccentricity": 0.0,
        "Inclination(deg)": 60.0,
        "Latitude(deg)": -14.292861565152428,
        "Longitude(deg)": 48.44267197737509,
        "Mean Anomaly(deg)": -163.63639999999998,
        "RAAN(deg)": 320.0,
        "Satellite Name": "Test1 1420",
        "Satellite Number": 1420,
        "Semi-Major Axis(m)": 6980739.136638005,
        "Time(s)": 0
    },
    {
        "Altitude(m)": 608060.2273826029,
        "Argument of Periapsis(deg)": 0.00010418945913296404,
        "Eccentricity": 0.0,
        "Inclination(deg)": 60.0,
        "Latitude(deg)": -14.826522483568233,
        "Longitude(deg)": 48.73128226266364,
        "Mean Anomaly(deg)": -163.01629385453822,
        "RAAN(deg)": 319.9995799508602,
        "Satellite Name": "Test1 1420",
        "Satellite Number": 1420,
        "Semi-Major Axis(m)": 6980739.136638005,
        "Time(s)": 10
    }
]